IRIDIUM 86 [+]          
1 25528U 98066B   17345.74379193  .00000179  00000-0  56860-4 0  9990
2 25528  86.3959 275.5303 0002202  87.3165 272.8283 14.34216940  4814
